{
  "type": "FeatureCollection",
  "features": [
    {
      "type": "Feature",
      "properties": {
        "norad_id": 66461,
        "name": "STARLINK-35132",
        "group": "last-30-days",
        "lat": -34.3157254057076,
        "lon": -58.10720579699089,
        "alt_km": 446.70511544512283,
        "timestamp": "2025-12-12T03:50:51.175803+00:00",
        "meta_object_name": "STARLINK-35132",
        "meta_object_id": "2025-262F",
        "meta_epoch": "2025-12-11T14:00:01.999872",
        "meta_mean_motion": 15.40556535,
        "meta_eccentricity": 0.00017561,
        "meta_inclination": 43.0002,
        "meta_ra_of_asc_node": 78.1244,
        "meta_arg_of_pericenter": 303.6255,
        "meta_mean_anomaly": 328.3919,
        "meta_ephemeris_type": 0,
        "meta_classification_type": "U",
        "meta_norad_cat_id": 66461,
        "meta_element_set_no": 999,
        "meta_rev_at_epoch": 545,
        "meta_bstar": 0.0024317282,
        "meta_mean_motion_dot": 0.00102159,
        "meta_mean_motion_ddot": 0,
        "tle_line1": "1 66461U 25262F   25345.58335648  .00102159  00000+0  24317-2 0  9997",
        "tle_line2": "2 66461  43.0002  78.1244 0001756 303.6255 328.3919 15.40556535  5451"
      },
      "geometry": {
        "type": "Point",
        "coordinates": [
          -58.10720579699089,
          -34.3157254057076
        ]
      }
    },
    {
      "type": "Feature",
      "properties": {
        "norad_id": 66462,
        "name": "STARLINK-35499",
        "group": "last-30-days",
        "lat": -39.281840295634055,
        "lon": -43.85767363201443,
        "alt_km": 446.93178332950447,
        "timestamp": "2025-12-12T03:50:51.175814+00:00",
        "meta_object_name": "STARLINK-35499",
        "meta_object_id": "2025-262G",
        "meta_epoch": "2025-12-11T14:00:01.999872",
        "meta_mean_motion": 15.40578081,
        "meta_eccentricity": 0.00011052,
        "meta_inclination": 43.0003,
        "meta_ra_of_asc_node": 78.093,
        "meta_arg_of_pericenter": 294.6826,
        "meta_mean_anomaly": 349.7953,
        "meta_ephemeris_type": 0,
        "meta_classification_type": "U",
        "meta_norad_cat_id": 66462,
        "meta_element_set_no": 999,
        "meta_rev_at_epoch": 545,
        "meta_bstar": 0.001453706,
        "meta_mean_motion_dot": 0.00060659,
        "meta_mean_motion_ddot": 0,
        "tle_line1": "1 66462U 25262G   25345.58335648  .00060659  00000+0  14537-2 0  9999",
        "tle_line2": "2 66462  43.0003  78.0930 0001105 294.6826 349.7953 15.40578081  5450"
      },
      "geometry": {
        "type": "Point",
        "coordinates": [
          -43.85767363201443,
          -39.281840295634055
        ]
      }
    },
    {
      "type": "Feature",
      "properties": {
        "norad_id": 66463,
        "name": "STARLINK-35463",
        "group": "last-30-days",
        "lat": -42.90837758416983,
        "lon": -11.225007936841767,
        "alt_km": 446.50514204711,
        "timestamp": "2025-12-12T03:50:51.175825+00:00",
        "meta_object_name": "STARLINK-35463",
        "meta_object_id": "2025-262H",
        "meta_epoch": "2025-12-11T14:00:01.999872",
        "meta_mean_motion": 15.40633339,
        "meta_eccentricity": 0.00013378,
        "meta_inclination": 43.0007,
        "meta_ra_of_asc_node": 78.0332,
        "meta_arg_of_pericenter": 262.8033,
        "meta_mean_anomaly": 46.3324,
        "meta_ephemeris_type": 0,
        "meta_classification_type": "U",
        "meta_norad_cat_id": 66463,
        "meta_element_set_no": 999,
        "meta_rev_at_epoch": 545,
        "meta_bstar": 0.0014360793,
        "meta_mean_motion_dot": 0.00060025,
        "meta_mean_motion_ddot": 0,
        "tle_line1": "1 66463U 25262H   25345.58335648  .00060025  00000+0  14361-2 0  9992",
        "tle_line2": "2 66463  43.0007  78.0332 0001337 262.8033  46.3324 15.40633339  5455"
      },
      "geometry": {
        "type": "Point",
        "coordinates": [
          -11.225007936841767,
          -42.90837758416983
        ]
      }
    },
    {
      "type": "Feature",
      "properties": {
        "norad_id": 66464,
        "name": "STARLINK-35435",
        "group": "last-30-days",
        "lat": -42.26528187472534,
        "lon": -28.031157051953553,
        "alt_km": 447.02555786090306,
        "timestamp": "2025-12-12T03:50:51.175847+00:00",
        "meta_object_name": "STARLINK-35435",
        "meta_object_id": "2025-262J",
        "meta_epoch": "2025-12-11T14:00:01.999872",
        "meta_mean_motion": 15.40760838,
        "meta_eccentricity": 0.00013818,
        "meta_inclination": 43.0005,
        "meta_ra_of_asc_node": 78.0634,
        "meta_arg_of_pericenter": 260.2673,
        "meta_mean_anomaly": 36.5387,
        "meta_ephemeris_type": 0,
        "meta_classification_type": "U",
        "meta_norad_cat_id": 66464,
        "meta_element_set_no": 999,
        "meta_rev_at_epoch": 545,
        "meta_bstar": -0.0054475802,
        "meta_mean_motion_dot": -0.00221823,
        "meta_mean_motion_ddot": 0,
        "tle_line1": "1 66464U 25262J   25345.58335648 -.00221823  00000+0 -54476-2 0  9991",
        "tle_line2": "2 66464  43.0005  78.0634 0001381 260.2673  36.5387 15.40760838  5455"
      },
      "geometry": {
        "type": "Point",
        "coordinates": [
          -28.031157051953553,
          -42.26528187472534
        ]
      }
    },
    {
      "type": "Feature",
      "properties": {
        "norad_id": 66465,
        "name": "STARLINK-35448",
        "group": "last-30-days",
        "lat": -37.05500740383984,
        "lon": 20.526106901139133,
        "alt_km": 446.3859783534381,
        "timestamp": "2025-12-12T03:50:51.175858+00:00",
        "meta_object_name": "STARLINK-35448",
        "meta_object_id": "2025-262K",
        "meta_epoch": "2025-12-11T14:00:01.999872",
        "meta_mean_motion": 15.40621482,
        "meta_eccentricity": 0.00011864,
        "meta_inclination": 43.0005,
        "meta_ra_of_asc_node": 77.9731,
        "meta_arg_of_pericenter": 288.8651,
        "meta_mean_anomaly": 45.2442,
        "meta_ephemeris_type": 0,
        "meta_classification_type": "U",
        "meta_norad_cat_id": 66465,
        "meta_element_set_no": 999,
        "meta_rev_at_epoch": 545,
        "meta_bstar": 0.0013887063,
        "meta_mean_motion_dot": 0.00057996,
        "meta_mean_motion_ddot": 0,
        "tle_line1": "1 66465U 25262K   25345.58335648  .00057996  00000+0  13887-2 0  9999",
        "tle_line2": "2 66465  43.0005  77.9731 0001186 288.8651  45.2442 15.40621482  5457"
      },
      "geometry": {
        "type": "Point",
        "coordinates": [
          20.526106901139133,
          -37.05500740383984
        ]
      }
    },
    {
      "type": "Feature",
      "properties": {
        "norad_id": 66466,
        "name": "STARLINK-35388",
        "group": "last-30-days",
        "lat": -31.3361412144935,
        "lon": 33.817766070778056,
        "alt_km": 446.2150323956803,
        "timestamp": "2025-12-12T03:50:51.175869+00:00",
        "meta_object_name": "STARLINK-35388",
        "meta_object_id": "2025-262L",
        "meta_epoch": "2025-12-11T14:00:01.999872",
        "meta_mean_motion": 15.40622159,
        "meta_eccentricity": 0.00010856,
        "meta_inclination": 43.0007,
        "meta_ra_of_asc_node": 77.9404,
        "meta_arg_of_pericenter": 269.3146,
        "meta_mean_anomaly": 77.1795,
        "meta_ephemeris_type": 0,
        "meta_classification_type": "U",
        "meta_norad_cat_id": 66466,
        "meta_element_set_no": 999,
        "meta_rev_at_epoch": 545,
        "meta_bstar": 0.0018511039,
        "meta_mean_motion_dot": 0.0007761,
        "meta_mean_motion_ddot": 0,
        "tle_line1": "1 66466U 25262L   25345.58335648  .00077610  00000+0  18511-2 0  9994",
        "tle_line2": "2 66466  43.0007  77.9404 0001085 269.3146  77.1795 15.40622159  5455"
      },
      "geometry": {
        "type": "Point",
        "coordinates": [
          33.817766070778056,
          -31.3361412144935
        ]
      }
    },
    {
      "type": "Feature",
      "properties": {
        "norad_id": 66467,
        "name": "STARLINK-35682",
        "group": "last-30-days",
        "lat": -41.08578789236991,
        "lon": 5.3450326988455785,
        "alt_km": 447.4277950901396,
        "timestamp": "2025-12-12T03:50:51.175880+00:00",
        "meta_object_name": "STARLINK-35682",
        "meta_object_id": "2025-262M",
        "meta_epoch": "2025-12-11T14:00:01.999872",
        "meta_mean_motion": 15.40810571,
        "meta_eccentricity": 0.00010749,
        "meta_inclination": 43.0011,
        "meta_ra_of_asc_node": 78.0029,
        "meta_arg_of_pericenter": 254.7968,
        "meta_mean_anomaly": 66.8895,
        "meta_ephemeris_type": 0,
        "meta_classification_type": "U",
        "meta_norad_cat_id": 66467,
        "meta_element_set_no": 999,
        "meta_rev_at_epoch": 545,
        "meta_bstar": -0.0076287501,
        "meta_mean_motion_dot": -0.00307588,
        "meta_mean_motion_ddot": 0,
        "tle_line1": "1 66467U 25262M   25345.58335648 -.00307588  00000+0 -76288-2 0  9992",
        "tle_line2": "2 66467  43.0011  78.0029 0001074 254.7968  66.8895 15.40810571  5457"
      },
      "geometry": {
        "type": "Point",
        "coordinates": [
          5.3450326988455785,
          -41.08578789236991
        ]
      }
    }
  ]
}